CCSDS_OMM_VERS = 2.0
CREATION_DATE  = 
ORIGINATOR     = 

OBJECT_NAME    = STARLINK-36342
OBJECT_ID      = 2026-022B
CENTER_NAME    = EARTH
REF_FRAME      = TEME
TIME_SYSTEM    = UTC
MEAN_ELEMENT_THEORY = SGP/SGP4

EPOCH          = 2026-02-26T13:04:17.399712
MEAN_MOTION    = 15.75357054
ECCENTRICITY   = .000097
INCLINATION    = 97.2826
RA_OF_ASC_NODE = 90.9596
ARG_OF_PERICENTER = 61.4380
MEAN_ANOMALY   = 298.6982

EPHEMERIS_TYPE = 0
CLASSIFICATION_TYPE = U
NORAD_CAT_ID   = 67649
ELEMENT_SET_NO = 999
REV_AT_EPOCH   = 379
BSTAR          = .23377E-2
MEAN_MOTION_DOT = .366598E-2
MEAN_MOTION_DDOT = 0

CCSDS_OMM_VERS = 2.0
CREATION_DATE  = 
ORIGINATOR     = 

OBJECT_NAME    = STARLINK-36703
OBJECT_ID      = 2026-022C
CENTER_NAME    = EARTH
REF_FRAME      = TEME
TIME_SYSTEM    = UTC
MEAN_ELEMENT_THEORY = SGP/SGP4

EPOCH          = 2026-02-26T13:02:45.923712
MEAN_MOTION    = 15.75256601
ECCENTRICITY   = .0001765
INCLINATION    = 97.2837
RA_OF_ASC_NODE = 90.9617
ARG_OF_PERICENTER = 76.5384
MEAN_ANOMALY   = 283.6078

EPHEMERIS_TYPE = 0
CLASSIFICATION_TYPE = U
NORAD_CAT_ID   = 67650
ELEMENT_SET_NO = 999
REV_AT_EPOCH   = 379
BSTAR          = .24296E-2
MEAN_MOTION_DOT = .379945E-2
MEAN_MOTION_DDOT = 0

CCSDS_OMM_VERS = 2.0
CREATION_DATE  = 
ORIGINATOR     = 

OBJECT_NAME    = STARLINK-36696
OBJECT_ID      = 2026-022D
CENTER_NAME    = EARTH
REF_FRAME      = TEME
TIME_SYSTEM    = UTC
MEAN_ELEMENT_THEORY = SGP/SGP4

EPOCH          = 2026-02-26T13:00:11.955456
MEAN_MOTION    = 15.75392050
ECCENTRICITY   = .0004136
INCLINATION    = 97.2833
RA_OF_ASC_NODE = 90.9641
ARG_OF_PERICENTER = 272.7995
MEAN_ANOMALY   = 87.2797

EPHEMERIS_TYPE = 0
CLASSIFICATION_TYPE = U
NORAD_CAT_ID   = 67651
ELEMENT_SET_NO = 999
REV_AT_EPOCH   = 379
BSTAR          = .23579E-2
MEAN_MOTION_DOT = .370537E-2
MEAN_MOTION_DDOT = 0

CCSDS_OMM_VERS = 2.0
CREATION_DATE  = 
ORIGINATOR     = 

OBJECT_NAME    = STARLINK-36699
OBJECT_ID      = 2026-022E
CENTER_NAME    = EARTH
REF_FRAME      = TEME
TIME_SYSTEM    = UTC
MEAN_ELEMENT_THEORY = SGP/SGP4

EPOCH          = 2026-02-26T12:59:12.190848
MEAN_MOTION    = 15.75274188
ECCENTRICITY   = .0000513
INCLINATION    = 97.2834
RA_OF_ASC_NODE = 90.9648
ARG_OF_PERICENTER = 58.1443
MEAN_ANOMALY   = 301.9872

EPHEMERIS_TYPE = 0
CLASSIFICATION_TYPE = U
NORAD_CAT_ID   = 67652
ELEMENT_SET_NO = 999
REV_AT_EPOCH   = 379
BSTAR          = .21938E-2
MEAN_MOTION_DOT = .341793E-2
MEAN_MOTION_DDOT = 0

CCSDS_OMM_VERS = 2.0
CREATION_DATE  = 
ORIGINATOR     = 

OBJECT_NAME    = STARLINK-36694
OBJECT_ID      = 2026-022F
CENTER_NAME    = EARTH
REF_FRAME      = TEME
TIME_SYSTEM    = UTC
MEAN_ELEMENT_THEORY = SGP/SGP4

EPOCH          = 2026-02-26T02:15:18.125856
MEAN_MOTION    = 15.76136362
ECCENTRICITY   = .00007502
INCLINATION    = 97.2826
RA_OF_ASC_NODE = 90.5004
ARG_OF_PERICENTER = 27.3992
MEAN_ANOMALY   = 332.7314

EPHEMERIS_TYPE = 0
CLASSIFICATION_TYPE = U
NORAD_CAT_ID   = 67653
ELEMENT_SET_NO = 999
REV_AT_EPOCH   = 372
BSTAR          = .24715982E-2
MEAN_MOTION_DOT = .402648E-2
MEAN_MOTION_DDOT = 0

CCSDS_OMM_VERS = 2.0
CREATION_DATE  = 
ORIGINATOR     = 

OBJECT_NAME    = STARLINK-36620
OBJECT_ID      = 2026-022G
CENTER_NAME    = EARTH
REF_FRAME      = TEME
TIME_SYSTEM    = UTC
MEAN_ELEMENT_THEORY = SGP/SGP4

EPOCH          = 2026-02-26T15:59:03.732288
MEAN_MOTION    = 15.73150759
ECCENTRICITY   = .000782
INCLINATION    = 97.2772
RA_OF_ASC_NODE = 91.1013
ARG_OF_PERICENTER = 129.4271
MEAN_ANOMALY   = 230.7687

EPHEMERIS_TYPE = 0
CLASSIFICATION_TYPE = U
NORAD_CAT_ID   = 67654
ELEMENT_SET_NO = 999
REV_AT_EPOCH   = 381
BSTAR          = -.37695E-1
MEAN_MOTION_DOT = -.43642E-1
MEAN_MOTION_DDOT = 0

CCSDS_OMM_VERS = 2.0
CREATION_DATE  = 
ORIGINATOR     = 

OBJECT_NAME    = STARLINK-36720
OBJECT_ID      = 2026-022H
CENTER_NAME    = EARTH
REF_FRAME      = TEME
TIME_SYSTEM    = UTC
MEAN_ELEMENT_THEORY = SGP/SGP4

EPOCH          = 2026-02-26T12:53:06.933984
MEAN_MOTION    = 15.75338751
ECCENTRICITY   = .0001839
INCLINATION    = 97.2836
RA_OF_ASC_NODE = 90.9704
ARG_OF_PERICENTER = 58.1531
MEAN_ANOMALY   = 301.9913

EPHEMERIS_TYPE = 0
CLASSIFICATION_TYPE = U
NORAD_CAT_ID   = 67655
ELEMENT_SET_NO = 999
REV_AT_EPOCH   = 379
BSTAR          = .24974E-2
MEAN_MOTION_DOT = .39253E-2
MEAN_MOTION_DDOT = 0

CCSDS_OMM_VERS = 2.0
CREATION_DATE  = 
ORIGINATOR     = 

OBJECT_NAME    = STARLINK-36688
OBJECT_ID      = 2026-022J
CENTER_NAME    = EARTH
REF_FRAME      = TEME
TIME_SYSTEM    = UTC
MEAN_ELEMENT_THEORY = SGP/SGP4

EPOCH          = 2026-02-26T12:52:04.899648
MEAN_MOTION    = 15.75312462
ECCENTRICITY   = .0001618
INCLINATION    = 97.2834
RA_OF_ASC_NODE = 90.9703
ARG_OF_PERICENTER = 302.9852
MEAN_ANOMALY   = 57.1258

EPHEMERIS_TYPE = 0
CLASSIFICATION_TYPE = U
NORAD_CAT_ID   = 67656
ELEMENT_SET_NO = 999
REV_AT_EPOCH   = 379
BSTAR          = .19892E-2
MEAN_MOTION_DOT = .309204E-2
MEAN_MOTION_DDOT = 0

CCSDS_OMM_VERS = 2.0
CREATION_DATE  = 
ORIGINATOR     = 

OBJECT_NAME    = STARLINK-36706
OBJECT_ID      = 2026-022K
CENTER_NAME    = EARTH
REF_FRAME      = TEME
TIME_SYSTEM    = UTC
MEAN_ELEMENT_THEORY = SGP/SGP4

EPOCH          = 2026-02-26T15:53:01.184928
MEAN_MOTION    = 15.75215646
ECCENTRICITY   = .0001523
INCLINATION    = 97.2845
RA_OF_ASC_NODE = 91.1049
ARG_OF_PERICENTER = 88.8163
MEAN_ANOMALY   = 271.3276

EPHEMERIS_TYPE = 0
CLASSIFICATION_TYPE = U
NORAD_CAT_ID   = 67657
ELEMENT_SET_NO = 999
REV_AT_EPOCH   = 381
BSTAR          = .24485E-2
MEAN_MOTION_DOT = .382339E-2
MEAN_MOTION_DDOT = 0

CCSDS_OMM_VERS = 2.0
CREATION_DATE  = 
ORIGINATOR     = 

OBJECT_NAME    = STARLINK-36701
OBJECT_ID      = 2026-022L
CENTER_NAME    = EARTH
REF_FRAME      = TEME
TIME_SYSTEM    = UTC
MEAN_ELEMENT_THEORY = SGP/SGP4

EPOCH          = 2026-02-26T12:48:31.710240
MEAN_MOTION    = 15.75282690
ECCENTRICITY   = .0000638
INCLINATION    = 97.2830
RA_OF_ASC_NODE = 90.9735
ARG_OF_PERICENTER = 303.0277
MEAN_ANOMALY   = 57.0927

EPHEMERIS_TYPE = 0
CLASSIFICATION_TYPE = U
NORAD_CAT_ID   = 67658
ELEMENT_SET_NO = 999
REV_AT_EPOCH   = 379
BSTAR          = .16654E-2
MEAN_MOTION_DOT = .256927E-2
MEAN_MOTION_DDOT = 0

CCSDS_OMM_VERS = 2.0
CREATION_DATE  = 
ORIGINATOR     = 

OBJECT_NAME    = STARLINK-36642
OBJECT_ID      = 2026-022M
CENTER_NAME    = EARTH
REF_FRAME      = TEME
TIME_SYSTEM    = UTC
MEAN_ELEMENT_THEORY = SGP/SGP4

EPOCH          = 2026-02-26T12:47:00.039840
MEAN_MOTION    = 15.75308350
ECCENTRICITY   = .0001232
INCLINATION    = 97.2830
RA_OF_ASC_NODE = 90.9754
ARG_OF_PERICENTER = 280.3190
MEAN_ANOMALY   = 79.7937

EPHEMERIS_TYPE = 0
CLASSIFICATION_TYPE = U
NORAD_CAT_ID   = 67659
ELEMENT_SET_NO = 999
REV_AT_EPOCH   = 379
BSTAR          = .19936E-2
MEAN_MOTION_DOT = .309861E-2
MEAN_MOTION_DDOT = 0

CCSDS_OMM_VERS = 2.0
CREATION_DATE  = 
ORIGINATOR     = 

OBJECT_NAME    = STARLINK-36673
OBJECT_ID      = 2026-022N
CENTER_NAME    = EARTH
REF_FRAME      = TEME
TIME_SYSTEM    = UTC
MEAN_ELEMENT_THEORY = SGP/SGP4

EPOCH          = 2026-02-26T12:44:58.981344
MEAN_MOTION    = 15.75296784
ECCENTRICITY   = .0001675
INCLINATION    = 97.2844
RA_OF_ASC_NODE = 90.9771
ARG_OF_PERICENTER = 49.9056
MEAN_ANOMALY   = 310.2356

EPHEMERIS_TYPE = 0
CLASSIFICATION_TYPE = U
NORAD_CAT_ID   = 67660
ELEMENT_SET_NO = 999
REV_AT_EPOCH   = 379
BSTAR          = .1846E-2
MEAN_MOTION_DOT = .285954E-2
MEAN_MOTION_DDOT = 0

